{
    "links": {
        "self": "http://www.neowsapp.com/rest/v1/neo/3780777?api_key=iIulBulltgU6a56xZRHN4H3l9WmuAYTsLGpBGhQ2"
    },
    "id": "3780777",
    "neo_reference_id": "3780777",
    "name": "(2017 QH2)",
    "designation": "2017 QH2",
    "nasa_jpl_url": "http://ssd.jpl.nasa.gov/sbdb.cgi?sstr=3780777",
    "absolute_magnitude_h": 25.7,
    "estimated_diameter": {
        "kilometers": {
            "estimated_diameter_min": 0.0192555078,
            "estimated_diameter_max": 0.0430566244
        },
        "meters": {
            "estimated_diameter_min": 19.2555078188,
            "estimated_diameter_max": 43.0566244241
        },
        "miles": {
            "estimated_diameter_min": 0.0119648141,
            "estimated_diameter_max": 0.0267541378
        },
        "feet": {
            "estimated_diameter_min": 63.1742402722,
            "estimated_diameter_max": 141.2618956756
        }
    },
    "is_potentially_hazardous_asteroid": false,
    "close_approach_data": [
        {
            "close_approach_date": "2017-07-30",
            "close_approach_date_full": "2017-Jul-30 21:12",
            "epoch_date_close_approach": 1501449120000,
            "relative_velocity": {
                "kilometers_per_second": "5.4903319139",
                "kilometers_per_hour": "19765.1948901746",
                "miles_per_hour": "12281.3234582866"
            },
            "miss_distance": {
                "astronomical": "0.1108873459",
                "lunar": "43.1351775551",
                "kilometers": "16588510.756593233",
                "miles": "10307622.6133352954"
            },
            "orbiting_body": "Earth"
        }
    ],
    "orbital_data": {
        "orbit_id": "2",
        "orbit_determination_date": "2017-08-29 06:20:02",
        "first_observation_date": "2017-08-17",
        "last_observation_date": "2017-08-26",
        "data_arc_in_days": 9,
        "observations_used": 12,
        "orbit_uncertainty": "9",
        "minimum_orbit_intersection": ".110103",
        "jupiter_tisserand_invariant": "3.301",
        "epoch_osculation": "2457983.5",
        "eccentricity": ".5352348960211062",
        "semi_major_axis": "2.421262418766923",
        "inclination": ".3034034553908161",
        "ascending_node_longitude": "311.1740542925589",
        "orbital_period": "1376.135564342679",
        "perihelion_distance": "1.125318279818397",
        "perihelion_argument": "355.7081376883473",
        "aphelion_distance": "3.717206557715449",
        "perihelion_time": "2457965.285510775716",
        "mean_anomaly": "4.764949246751239",
        "mean_motion": ".2616021337781184",
        "equinox": "J2000",
        "orbit_class": {
            "orbit_class_type": "AMO",
            "orbit_class_description": "Near-Earth asteroid orbits similar to that of 1221 Amor",
            "orbit_class_range": "1.017 AU < q (perihelion) < 1.3 AU"
        }
    },
    "is_sentry_object": false
}